{
  "division": "Chittagong",
  "description": "Chittagong Division Village Hierarchy Database - Optimized for AI Training/Fine-tuning",
  "hierarchy": "Division > District > Upazila > Union > Village",
  "districts": [
    {
      "name": "Chattogram",
      "division": "Chittagong",
      "upazilas": [
        {
          "name": "Anwara",
          "nameBn": "আনোয়ারা",
          "postalCode": "4376",
          "district": "Chattogram",
          "division": "Chittagong",
          "unions": [
            {
              "name": "Anwara Union",
              "upazila": "Anwara",
              "district": "Chattogram",
              "division": "Chittagong",
              "villages": [
                {
                  "name": "Anwara",
                  "upazila": "Anwara",
                  "district": "Chattogram",
                  "division": "Chittagong",
                  "postalCode": "4376"
                },
                {
                  "name": "Anwara Bazar",
                  "upazila": "Anwara",
                  "district": "Chattogram",
                  "division": "Chittagong",
                  "postalCode": "4376"
                },
                {
                  "name": "Anwara Post Office",
                  "upazila": "Anwara",
                  "district": "Chattogram",
                  "division": "Chittagong",
                  "postalCode": "4376"
                },
                {
                  "name": "Anwara Thana",
                  "upazila": "Anwara",
                  "district": "Chattogram",
                  "division": "Chittagong",
                  "postalCode": "4376"
                }
              ]
            },
            {
              "name": "Bairag Union",
              "upazila": "Anwara",
              "district": "Chattogram",
              "division": "Chittagong",
              "villages": [
                {
                  "name": "Bairag",
                  "upazila": "Anwara",
                  "district": "Chattogram",
                  "division": "Chittagong",
                  "postalCode": "4376"
                },
                {
                  "name": "Bairag Bazar",
                  "upazila": "Anwara",
                  "district": "Chattogram",
                  "division": "Chittagong",
                  "postalCode": "4376"
                }
              ]
            },
            {
              "name": "Barakhain Union",
              "upazila": "Anwara",
              "district": "Chattogram",
              "division": "Chittagong",
              "villages": [
                {
                  "name": "Barakhain",
                  "upazila": "Anwara",
                  "district": "Chattogram",
                  "division": "Chittagong",
                  "postalCode": "4376"
                },
                {
                  "name": "Barakhain Bazar",
                  "upazila": "Anwara",
                  "district": "Chattogram",
                  "division": "Chittagong",
                  "postalCode": "4376"
                }
              ]
            },
            {
              "name": "Barasat Union",
              "upazila": "Anwara",
              "district": "Chattogram",
              "division": "Chittagong",
              "villages": [
                {
                  "name": "Barasat",
                  "upazila": "Anwara",
                  "district": "Chattogram",
                  "division": "Chittagong",
                  "postalCode": "4376"
                },
                {
                  "name": "Barasat Bazar",
                  "upazila": "Anwara",
                  "district": "Chattogram",
                  "division": "Chittagong",
                  "postalCode": "4376"
                }
              ]
            },
            {
              "name": "Burumchhara Union",
              "upazila": "Anwara",
              "district": "Chattogram",
              "division": "Chittagong",
              "villages": [
                {
                  "name": "Burumchhara",
                  "upazila": "Anwara",
                  "district": "Chattogram",
                  "division": "Chittagong",
                  "postalCode": "4376"
                },
                {
                  "name": "Burumchhara Bazar",
                  "upazila": "Anwara",
                  "district": "Chattogram",
                  "division": "Chittagong",
                  "postalCode": "4376"
                }
              ]
            },
            {
              "name": "Battali Union",
              "upazila": "Anwara",
              "district": "Chattogram",
              "division": "Chittagong",
              "villages": [
                {
                  "name": "Battali",
                  "upazila": "Anwara",
                  "district": "Chattogram",
                  "division": "Chittagong",
                  "postalCode": "4376"
                },
                {
                  "name": "Battali Bazar",
                  "upazila": "Anwara",
                  "district": "Chattogram",
                  "division": "Chittagong",
                  "postalCode": "4376"
                }
              ]
            },
            {
              "name": "Chatari Union",
              "upazila": "Anwara",
              "district": "Chattogram",
              "division": "Chittagong",
              "villages": [
                {
                  "name": "Chatari",
                  "upazila": "Anwara",
                  "district": "Chattogram",
                  "division": "Chittagong",
                  "postalCode": "4376"
                },
                {
                  "name": "Chatari Bazar",
                  "upazila": "Anwara",
                  "district": "Chattogram",
                  "division": "Chittagong",
                  "postalCode": "4376"
                }
              ]
            },
            {
              "name": "Haildhar Union",
              "upazila": "Anwara",
              "district": "Chattogram",
              "division": "Chittagong",
              "villages": [
                {
                  "name": "Haildhar",
                  "upazila": "Anwara",
                  "district": "Chattogram",
                  "division": "Chittagong",
                  "postalCode": "4376"
                },
                {
                  "name": "Haildhar Bazar",
                  "upazila": "Anwara",
                  "district": "Chattogram",
                  "division": "Chittagong",
                  "postalCode": "4376"
                }
              ]
            },
            {
              "name": "Juidandi Union",
              "upazila": "Anwara",
              "district": "Chattogram",
              "division": "Chittagong",
              "villages": [
                {
                  "name": "Juidandi",
                  "upazila": "Anwara",
                  "district": "Chattogram",
                  "division": "Chittagong",
                  "postalCode": "4376"
                },
                {
                  "name": "Juidandi Bazar",
                  "upazila": "Anwara",
                  "district": "Chattogram",
                  "division": "Chittagong",
                  "postalCode": "4376"
                }
              ]
            },
            {
              "name": "Paraikora Union",
              "upazila": "Anwara",
              "district": "Chattogram",
              "division": "Chittagong",
              "villages": [
                {
                  "name": "Paraikora",
                  "upazila": "Anwara",
                  "district": "Chattogram",
                  "division": "Chittagong",
                  "postalCode": "4376"
                },
                {
                  "name": "Vingrul",
                  "upazila": "Anwara",
                  "district": "Chattogram",
                  "division": "Chittagong",
                  "postalCode": "4376"
                },
                {
                  "name": "Sitepetua",
                  "upazila": "Anwara",
                  "district": "Chattogram",
                  "division": "Chittagong",
                  "postalCode": "4376"
                },
                {
                  "name": "Kaikhain",
                  "upazila": "Anwara",
                  "district": "Chattogram",
                  "division": "Chittagong",
                  "postalCode": "4376"
                },
                {
                  "name": "Purbokonnara",
                  "upazila": "Anwara",
                  "district": "Chattogram",
                  "division": "Chittagong",
                  "postalCode": "4376"
                },
                {
                  "name": "Bathuapara",
                  "upazila": "Anwara",
                  "district": "Chattogram",
                  "division": "Chittagong",
                  "postalCode": "4376"
                },
                {
                  "name": "Mahata",
                  "upazila": "Anwara",
                  "district": "Chattogram",
                  "division": "Chittagong",
                  "postalCode": "4376"
                },
                {
                  "name": "Talsara",
                  "upazila": "Anwara",
                  "district": "Chattogram",
                  "division": "Chittagong",
                  "postalCode": "4376"
                },
                {
                  "name": "Chenamati",
                  "upazila": "Anwara",
                  "district": "Chattogram",
                  "division": "Chittagong",
                  "postalCode": "4376"
                },
                {
                  "name": "Deotala",
                  "upazila": "Anwara",
                  "district": "Chattogram",
                  "division": "Chittagong",
                  "postalCode": "4376"
                },
                {
                  "name": "Patnikota",
                  "upazila": "Anwara",
                  "district": "Chattogram",
                  "division": "Chittagong",
                  "postalCode": "4376"
                },
                {
                  "name": "Tishri",
                  "upazila": "Anwara",
                  "district": "Chattogram",
                  "division": "Chittagong",
                  "postalCode": "4376"
                },
                {
                  "name": "Shilalia",
                  "upazila": "Anwara",
                  "district": "Chattogram",
                  "division": "Chittagong",
                  "postalCode": "4376"
                },
                {
                  "name": "Tatua",
                  "upazila": "Anwara",
                  "district": "Chattogram",
                  "division": "Chittagong",
                  "postalCode": "4376"
                },
                {
                  "name": "Oshkhain",
                  "upazila": "Anwara",
                  "district": "Chattogram",
                  "division": "Chittagong",
                  "postalCode": "4376"
                },
                {
                  "name": "Mamukhin",
                  "upazila": "Anwara",
                  "district": "Chattogram",
                  "division": "Chittagong",
                  "postalCode": "4376"
                }
              ]
            },
            {
              "name": "Roypur Union",
              "upazila": "Anwara",
              "district": "Chattogram",
              "division": "Chittagong",
              "villages": [
                {
                  "name": "Roypur",
                  "upazila": "Anwara",
                  "district": "Chattogram",
                  "division": "Chittagong",
                  "postalCode": "4376"
                },
                {
                  "name": "Roypur Bazar",
                  "upazila": "Anwara",
                  "district": "Chattogram",
                  "division": "Chittagong",
                  "postalCode": "4376"
                }
              ]
            }
          ]
        },
        {
          "name": "Banshkhali",
          "nameBn": "বাঁশখালী",
          "postalCode": "4390",
          "district": "Chattogram",
          "division": "Chittagong",
          "unions": [
            {
              "name": "Banshkhali Union",
              "upazila": "Banshkhali",
              "district": "Chattogram",
              "division": "Chittagong",
              "villages": [
                {
                  "name": "Banshkhali",
                  "upazila": "Banshkhali",
                  "district": "Chattogram",
                  "division": "Chittagong",
                  "postalCode": "4390"
                },
                {
                  "name": "Banshkhali Bazar",
                  "upazila": "Banshkhali",
                  "district": "Chattogram",
                  "division": "Chittagong",
                  "postalCode": "4390"
                }
              ]
            }
          ]
        },
        {
          "name": "Boalkhali",
          "nameBn": "বোয়ালখালী",
          "postalCode": "4366",
          "district": "Chattogram",
          "division": "Chittagong",
          "unions": [
            {
              "name": "Boalkhali Union",
              "upazila": "Boalkhali",
              "district": "Chattogram",
              "division": "Chittagong",
              "villages": [
                {
                  "name": "Boalkhali",
                  "upazila": "Boalkhali",
                  "district": "Chattogram",
                  "division": "Chittagong",
                  "postalCode": "4366"
                },
                {
                  "name": "Boalkhali Bazar",
                  "upazila": "Boalkhali",
                  "district": "Chattogram",
                  "division": "Chittagong",
                  "postalCode": "4366"
                }
              ]
            }
          ]
        },
        {
          "name": "Chandanaish",
          "nameBn": "চন্দনাইশ",
          "postalCode": "4386",
          "district": "Chattogram",
          "division": "Chittagong",
          "unions": [
            {
              "name": "Chandanaish Union",
              "upazila": "Chandanaish",
              "district": "Chattogram",
              "division": "Chittagong",
              "villages": [
                {
                  "name": "Chandanaish",
                  "upazila": "Chandanaish",
                  "district": "Chattogram",
                  "division": "Chittagong",
                  "postalCode": "4386"
                },
                {
                  "name": "Chandanaish Bazar",
                  "upazila": "Chandanaish",
                  "district": "Chattogram",
                  "division": "Chittagong",
                  "postalCode": "4386"
                }
              ]
            }
          ]
        },
        {
          "name": "Fatikchhari",
          "nameBn": "ফটিকছড়ি",
          "postalCode": "4350",
          "district": "Chattogram",
          "division": "Chittagong",
          "unions": [
            {
              "name": "Fatikchhari Union",
              "upazila": "Fatikchhari",
              "district": "Chattogram",
              "division": "Chittagong",
              "villages": [
                {
                  "name": "Fatikchhari",
                  "upazila": "Fatikchhari",
                  "district": "Chattogram",
                  "division": "Chittagong",
                  "postalCode": "4350"
                },
                {
                  "name": "Fatikchhari Bazar",
                  "upazila": "Fatikchhari",
                  "district": "Chattogram",
                  "division": "Chittagong",
                  "postalCode": "4350"
                }
              ]
            }
          ]
        },
        {
          "name": "Hathazari",
          "nameBn": "হাটহাজারী",
          "postalCode": "4330",
          "district": "Chattogram",
          "division": "Chittagong",
          "unions": [
            {
              "name": "Hathazari Union",
              "upazila": "Hathazari",
              "district": "Chattogram",
              "division": "Chittagong",
              "villages": [
                {
                  "name": "Hathazari",
                  "upazila": "Hathazari",
                  "district": "Chattogram",
                  "division": "Chittagong",
                  "postalCode": "4330"
                },
                {
                  "name": "Hathazari Bazar",
                  "upazila": "Hathazari",
                  "district": "Chattogram",
                  "division": "Chittagong",
                  "postalCode": "4330"
                }
              ]
            }
          ]
        },
        {
          "name": "Lohagara",
          "nameBn": "লোহাগাড়া",
          "postalCode": "4393",
          "district": "Chattogram",
          "division": "Chittagong",
          "unions": [
            {
              "name": "Lohagara Union",
              "upazila": "Lohagara",
              "district": "Chattogram",
              "division": "Chittagong",
              "villages": [
                {
                  "name": "Lohagara",
                  "upazila": "Lohagara",
                  "district": "Chattogram",
                  "division": "Chittagong",
                  "postalCode": "4393"
                },
                {
                  "name": "Lohagara Bazar",
                  "upazila": "Lohagara",
                  "district": "Chattogram",
                  "division": "Chittagong",
                  "postalCode": "4393"
                }
              ]
            }
          ]
        },
        {
          "name": "Mirsharai",
          "nameBn": "মীরসরাই",
          "postalCode": "4320",
          "district": "Chattogram",
          "division": "Chittagong",
          "unions": [
            {
              "name": "Mirsharai Union",
              "upazila": "Mirsharai",
              "district": "Chattogram",
              "division": "Chittagong",
              "villages": [
                {
                  "name": "Mirsharai",
                  "upazila": "Mirsharai",
                  "district": "Chattogram",
                  "division": "Chittagong",
                  "postalCode": "4320"
                },
                {
                  "name": "Mirsharai Bazar",
                  "upazila": "Mirsharai",
                  "district": "Chattogram",
                  "division": "Chittagong",
                  "postalCode": "4320"
                }
              ]
            }
          ]
        },
        {
          "name": "Patiya",
          "nameBn": "পটিয়া",
          "postalCode": "4370",
          "district": "Chattogram",
          "division": "Chittagong",
          "unions": [
            {
              "name": "Patiya Union",
              "upazila": "Patiya",
              "district": "Chattogram",
              "division": "Chittagong",
              "villages": [
                {
                  "name": "Patiya",
                  "upazila": "Patiya",
                  "district": "Chattogram",
                  "division": "Chittagong",
                  "postalCode": "4370"
                },
                {
                  "name": "Patiya Bazar",
                  "upazila": "Patiya",
                  "district": "Chattogram",
                  "division": "Chittagong",
                  "postalCode": "4370"
                }
              ]
            }
          ]
        },
        {
          "name": "Rangunia",
          "nameBn": "রাঙ্গুনিয়া",
          "postalCode": "4360",
          "district": "Chattogram",
          "division": "Chittagong",
          "unions": [
            {
              "name": "Rangunia Union",
              "upazila": "Rangunia",
              "district": "Chattogram",
              "division": "Chittagong",
              "villages": [
                {
                  "name": "Rangunia",
                  "upazila": "Rangunia",
                  "district": "Chattogram",
                  "division": "Chittagong",
                  "postalCode": "4360"
                },
                {
                  "name": "Rangunia Bazar",
                  "upazila": "Rangunia",
                  "district": "Chattogram",
                  "division": "Chittagong",
                  "postalCode": "4360"
                }
              ]
            }
          ]
        },
        {
          "name": "Raozan",
          "nameBn": "রাউজান",
          "postalCode": "4340",
          "district": "Chattogram",
          "division": "Chittagong",
          "unions": [
            {
              "name": "Raozan Union",
              "upazila": "Raozan",
              "district": "Chattogram",
              "division": "Chittagong",
              "villages": [
                {
                  "name": "Raozan",
                  "upazila": "Raozan",
                  "district": "Chattogram",
                  "division": "Chittagong",
                  "postalCode": "4340"
                },
                {
                  "name": "Raozan Bazar",
                  "upazila": "Raozan",
                  "district": "Chattogram",
                  "division": "Chittagong",
                  "postalCode": "4340"
                }
              ]
            }
          ]
        },
        {
          "name": "Sandwip",
          "nameBn": "সন্দ্বীপ",
          "postalCode": "4300",
          "district": "Chattogram",
          "division": "Chittagong",
          "unions": [
            {
              "name": "Sandwip Union",
              "upazila": "Sandwip",
              "district": "Chattogram",
              "division": "Chittagong",
              "villages": [
                {
                  "name": "Sandwip",
                  "upazila": "Sandwip",
                  "district": "Chattogram",
                  "division": "Chittagong",
                  "postalCode": "4300"
                },
                {
                  "name": "Sandwip Bazar",
                  "upazila": "Sandwip",
                  "district": "Chattogram",
                  "division": "Chittagong",
                  "postalCode": "4300"
                }
              ]
            }
          ]
        },
        {
          "name": "Satkania",
          "nameBn": "সাতকানিয়া",
          "postalCode": "4387",
          "district": "Chattogram",
          "division": "Chittagong",
          "unions": [
            {
              "name": "Satkania Union",
              "upazila": "Satkania",
              "district": "Chattogram",
              "division": "Chittagong",
              "villages": [
                {
                  "name": "Satkania",
                  "upazila": "Satkania",
                  "district": "Chattogram",
                  "division": "Chittagong",
                  "postalCode": "4387"
                },
                {
                  "name": "Satkania Bazar",
                  "upazila": "Satkania",
                  "district": "Chattogram",
                  "division": "Chittagong",
                  "postalCode": "4387"
                }
              ]
            }
          ]
        },
        {
          "name": "Sitakunda",
          "nameBn": "সীতাকুণ্ড",
          "postalCode": "4310",
          "district": "Chattogram",
          "division": "Chittagong",
          "unions": [
            {
              "name": "Sitakunda Union",
              "upazila": "Sitakunda",
              "district": "Chattogram",
              "division": "Chittagong",
              "villages": [
                {
                  "name": "Sitakunda",
                  "upazila": "Sitakunda",
                  "district": "Chattogram",
                  "division": "Chittagong",
                  "postalCode": "4310"
                },
                {
                  "name": "Sitakunda Bazar",
                  "upazila": "Sitakunda",
                  "district": "Chattogram",
                  "division": "Chittagong",
                  "postalCode": "4310"
                }
              ]
            }
          ]
        },
        {
          "name": "Karnaphuli",
          "nameBn": "কর্ণফুলী",
          "postalCode": "4201",
          "district": "Chattogram",
          "division": "Chittagong",
          "unions": [
            {
              "name": "Karnaphuli Union",
              "upazila": "Karnaphuli",
              "district": "Chattogram",
              "division": "Chittagong",
              "villages": [
                {
                  "name": "Karnaphuli",
                  "upazila": "Karnaphuli",
                  "district": "Chattogram",
                  "division": "Chittagong",
                  "postalCode": "4201"
                },
                {
                  "name": "Karnaphuli Bazar",
                  "upazila": "Karnaphuli",
                  "district": "Chattogram",
                  "division": "Chittagong",
                  "postalCode": "4201"
                }
              ]
            }
          ]
        },
        {
          "name": "Chattogram City Corporation",
          "nameBn": "চট্টগ্রাম সিটি কর্পোরেশন",
          "postalCode": "4000",
          "district": "Chattogram",
          "division": "Chittagong",
          "unions": [
            {
              "name": "Kotwali Thana",
              "postalCode": "4000",
              "upazila": "Chattogram City Corporation",
              "district": "Chattogram",
              "division": "Chittagong",
              "villages": [
                {
                  "name": "Kotwali",
                  "upazila": "Chattogram City Corporation",
                  "district": "Chattogram",
                  "division": "Chittagong",
                  "postalCode": "4000"
                },
                {
                  "name": "Chittagong GPO",
                  "upazila": "Chattogram City Corporation",
                  "district": "Chattogram",
                  "division": "Chittagong",
                  "postalCode": "4000"
                },
                {
                  "name": "Anderkilla",
                  "upazila": "Chattogram City Corporation",
                  "district": "Chattogram",
                  "division": "Chittagong",
                  "postalCode": "4000"
                },
                {
                  "name": "Chawkbazar",
                  "upazila": "Chattogram City Corporation",
                  "district": "Chattogram",
                  "division": "Chittagong",
                  "postalCode": "4203"
                }
              ]
            },
            {
              "name": "Double Mooring Thana",
              "postalCode": "4205",
              "upazila": "Chattogram City Corporation",
              "district": "Chattogram",
              "division": "Chittagong",
              "villages": [
                {
                  "name": "Double Mooring",
                  "upazila": "Chattogram City Corporation",
                  "district": "Chattogram",
                  "division": "Chittagong",
                  "postalCode": "4205"
                },
                {
                  "name": "Agrabad",
                  "upazila": "Chattogram City Corporation",
                  "district": "Chattogram",
                  "division": "Chittagong",
                  "postalCode": "4100"
                },
                {
                  "name": "Bandar",
                  "upazila": "Chattogram City Corporation",
                  "district": "Chattogram",
                  "division": "Chittagong",
                  "postalCode": "4100"
                }
              ]
            },
            {
              "name": "Halishahar Thana",
              "postalCode": "4216",
              "upazila": "Chattogram City Corporation",
              "district": "Chattogram",
              "division": "Chittagong",
              "villages": [
                {
                  "name": "Halishahar",
                  "upazila": "Chattogram City Corporation",
                  "district": "Chattogram",
                  "division": "Chittagong",
                  "postalCode": "4216"
                },
                {
                  "name": "Nasirabad",
                  "upazila": "Chattogram City Corporation",
                  "district": "Chattogram",
                  "division": "Chittagong",
                  "postalCode": "4200"
                }
              ]
            },
            {
              "name": "Pahartali Thana",
              "postalCode": "4202",
              "upazila": "Chattogram City Corporation",
              "district": "Chattogram",
              "division": "Chittagong",
              "villages": [
                {
                  "name": "Pahartali",
                  "upazila": "Chattogram City Corporation",
                  "district": "Chattogram",
                  "division": "Chittagong",
                  "postalCode": "4202"
                }
              ]
            },
            {
              "name": "Patenga Thana",
              "postalCode": "4204",
              "upazila": "Chattogram City Corporation",
              "district": "Chattogram",
              "division": "Chittagong",
              "villages": [
                {
                  "name": "Patenga",
                  "upazila": "Chattogram City Corporation",
                  "district": "Chattogram",
                  "division": "Chittagong",
                  "postalCode": "4204"
                }
              ]
            },
            {
              "name": "Chandgaon Thana",
              "postalCode": "4217",
              "upazila": "Chattogram City Corporation",
              "district": "Chattogram",
              "division": "Chittagong",
              "villages": [
                {
                  "name": "Chandgaon",
                  "upazila": "Chattogram City Corporation",
                  "district": "Chattogram",
                  "division": "Chittagong",
                  "postalCode": "4217"
                }
              ]
            },
            {
              "name": "Bayazid Bostami Thana",
              "postalCode": "4203",
              "upazila": "Chattogram City Corporation",
              "district": "Chattogram",
              "division": "Chittagong",
              "villages": [
                {
                  "name": "Bayazid Bostami",
                  "upazila": "Chattogram City Corporation",
                  "district": "Chattogram",
                  "division": "Chittagong",
                  "postalCode": "4203"
                }
              ]
            },
            {
              "name": "Bakolia Thana",
              "postalCode": "4206",
              "upazila": "Chattogram City Corporation",
              "district": "Chattogram",
              "division": "Chittagong",
              "villages": [
                {
                  "name": "Bakolia",
                  "upazila": "Chattogram City Corporation",
                  "district": "Chattogram",
                  "division": "Chittagong",
                  "postalCode": "4206"
                }
              ]
            },
            {
              "name": "Faujdarhat Thana",
              "postalCode": "4207",
              "upazila": "Chattogram City Corporation",
              "district": "Chattogram",
              "division": "Chittagong",
              "villages": [
                {
                  "name": "Faujdarhat",
                  "upazila": "Chattogram City Corporation",
                  "district": "Chattogram",
                  "division": "Chittagong",
                  "postalCode": "4207"
                }
              ]
            },
            {
              "name": "EPZ Thana",
              "postalCode": "4223",
              "upazila": "Chattogram City Corporation",
              "district": "Chattogram",
              "division": "Chittagong",
              "villages": [
                {
                  "name": "EPZ",
                  "upazila": "Chattogram City Corporation",
                  "district": "Chattogram",
                  "division": "Chittagong",
                  "postalCode": "4223"
                }
              ]
            },
            {
              "name": "Khulshi Thana",
              "postalCode": "4225",
              "upazila": "Chattogram City Corporation",
              "district": "Chattogram",
              "division": "Chittagong",
              "villages": [
                {
                  "name": "Khulshi",
                  "upazila": "Chattogram City Corporation",
                  "district": "Chattogram",
                  "division": "Chittagong",
                  "postalCode": "4225"
                }
              ]
            },
            {
              "name": "Panchlaish Thana",
              "postalCode": "4222",
              "upazila": "Chattogram City Corporation",
              "district": "Chattogram",
              "division": "Chittagong",
              "villages": [
                {
                  "name": "Panchlaish",
                  "upazila": "Chattogram City Corporation",
                  "district": "Chattogram",
                  "division": "Chittagong",
                  "postalCode": "4222"
                }
              ]
            },
            {
              "name": "Sadarghat Thana",
              "postalCode": "4100",
              "upazila": "Chattogram City Corporation",
              "district": "Chattogram",
              "division": "Chittagong",
              "villages": [
                {
                  "name": "Sadarghat",
                  "upazila": "Chattogram City Corporation",
                  "district": "Chattogram",
                  "division": "Chittagong",
                  "postalCode": "4100"
                }
              ]
            },
            {
              "name": "Akbar Shah Thana",
              "postalCode": "4218",
              "upazila": "Chattogram City Corporation",
              "district": "Chattogram",
              "division": "Chittagong",
              "villages": [
                {
                  "name": "Akbar Shah",
                  "upazila": "Chattogram City Corporation",
                  "district": "Chattogram",
                  "division": "Chittagong",
                  "postalCode": "4218"
                }
              ]
            },
            {
              "name": "Bakoliya Thana",
              "postalCode": "4219",
              "upazila": "Chattogram City Corporation",
              "district": "Chattogram",
              "division": "Chittagong",
              "villages": [
                {
                  "name": "Bakoliya",
                  "upazila": "Chattogram City Corporation",
                  "district": "Chattogram",
                  "division": "Chittagong",
                  "postalCode": "4219"
                }
              ]
            }
          ]
        },
        {
          "name": "Pahartali",
          "nameBn": "",
          "postalCode": "4202",
          "district": "Chattogram",
          "division": "Chittagong",
          "unions": [
            {
              "name": "Pahartali Area",
              "upazila": "Pahartali",
              "district": "Chattogram",
              "division": "Chittagong",
              "villages": []
            }
          ]
        },
        {
          "name": "Panchlaish",
          "nameBn": "",
          "postalCode": "4203",
          "district": "Chattogram",
          "division": "Chittagong",
          "unions": [
            {
              "name": "Panchlaish Area",
              "upazila": "Panchlaish",
              "district": "Chattogram",
              "division": "Chittagong",
              "villages": []
            }
          ]
        },
        {
          "name": "Chawkbazar",
          "nameBn": "",
          "postalCode": "4203",
          "district": "Chattogram",
          "division": "Chittagong",
          "unions": [
            {
              "name": "Chawkbazar Area",
              "upazila": "Chawkbazar",
              "district": "Chattogram",
              "division": "Chittagong",
              "villages": []
            }
          ]
        },
        {
          "name": "Chandgaon",
          "nameBn": "",
          "postalCode": "4212",
          "district": "Chattogram",
          "division": "Chittagong",
          "unions": [
            {
              "name": "Chandgaon Area",
              "upazila": "Chandgaon",
              "district": "Chattogram",
              "division": "Chittagong",
              "villages": []
            }
          ]
        },
        {
          "name": "Bakalia",
          "nameBn": "",
          "postalCode": "4203",
          "district": "Chattogram",
          "division": "Chittagong",
          "unions": [
            {
              "name": "Bakalia Area",
              "upazila": "Bakalia",
              "district": "Chattogram",
              "division": "Chittagong",
              "villages": []
            }
          ]
        },
        {
          "name": "Kotwali",
          "nameBn": "",
          "postalCode": "4000",
          "district": "Chattogram",
          "division": "Chittagong",
          "unions": [
            {
              "name": "Kotwali Area",
              "upazila": "Kotwali",
              "district": "Chattogram",
              "division": "Chittagong",
              "villages": []
            }
          ]
        },
        {
          "name": "Double Mooring",
          "nameBn": "",
          "postalCode": "4100",
          "district": "Chattogram",
          "division": "Chittagong",
          "unions": [
            {
              "name": "Double Mooring Area",
              "upazila": "Double Mooring",
              "district": "Chattogram",
              "division": "Chittagong",
              "villages": []
            }
          ]
        },
        {
          "name": "Halishahar",
          "nameBn": "",
          "postalCode": "4216",
          "district": "Chattogram",
          "division": "Chittagong",
          "unions": [
            {
              "name": "Halishahar Area",
              "upazila": "Halishahar",
              "district": "Chattogram",
              "division": "Chittagong",
              "villages": []
            }
          ]
        },
        {
          "name": "Port",
          "nameBn": "",
          "postalCode": "4100",
          "district": "Chattogram",
          "division": "Chittagong",
          "unions": [
            {
              "name": "Port Area",
              "upazila": "Port",
              "district": "Chattogram",
              "division": "Chittagong",
              "villages": []
            }
          ]
        },
        {
          "name": "EPZ",
          "nameBn": "",
          "postalCode": "4223",
          "district": "Chattogram",
          "division": "Chittagong",
          "unions": [
            {
              "name": "EPZ Area",
              "upazila": "EPZ",
              "district": "Chattogram",
              "division": "Chittagong",
              "villages": []
            }
          ]
        },
        {
          "name": "Patenga",
          "nameBn": "",
          "postalCode": "4204",
          "district": "Chattogram",
          "division": "Chittagong",
          "unions": [
            {
              "name": "Patenga Area",
              "upazila": "Patenga",
              "district": "Chattogram",
              "division": "Chittagong",
              "villages": []
            }
          ]
        },
        {
          "name": "Akbarshah",
          "nameBn": "",
          "postalCode": "4207",
          "district": "Chattogram",
          "division": "Chittagong",
          "unions": [
            {
              "name": "Akbarshah Area",
              "upazila": "Akbarshah",
              "district": "Chattogram",
              "division": "Chittagong",
              "villages": []
            }
          ]
        },
        {
          "name": "Bayazid",
          "nameBn": "",
          "postalCode": "4210",
          "district": "Chattogram",
          "division": "Chittagong",
          "unions": [
            {
              "name": "Bayazid Area",
              "upazila": "Bayazid",
              "district": "Chattogram",
              "division": "Chittagong",
              "villages": []
            }
          ]
        },
        {
          "name": "Khulshi",
          "nameBn": "",
          "postalCode": "4225",
          "district": "Chattogram",
          "division": "Chittagong",
          "unions": [
            {
              "name": "Khulshi Area",
              "upazila": "Khulshi",
              "district": "Chattogram",
              "division": "Chittagong",
              "villages": []
            }
          ]
        },
        {
          "name": "Sadarghat",
          "nameBn": "",
          "postalCode": "4000",
          "district": "Chattogram",
          "division": "Chittagong",
          "unions": [
            {
              "name": "Sadarghat Area",
              "upazila": "Sadarghat",
              "district": "Chattogram",
              "division": "Chittagong",
              "villages": []
            }
          ]
        }
      ]
    },
    {
      "name": "Cumilla",
      "division": "Chittagong",
      "upazilas": [
        {
          "name": "Comilla Sadar",
          "postalCode": "3500",
          "district": "Comilla",
          "division": "Chittagong",
          "unions": [
            {
              "name": "Comilla Sadar Union",
              "upazila": "Comilla Sadar",
              "district": "Comilla",
              "division": "Chittagong",
              "villages": [
                {
                  "name": "Comilla",
                  "upazila": "Comilla Sadar",
                  "district": "Comilla",
                  "division": "Chittagong",
                  "postalCode": "3500"
                },
                {
                  "name": "Comilla Bazar",
                  "upazila": "Comilla Sadar",
                  "district": "Comilla",
                  "division": "Chittagong",
                  "postalCode": "3500"
                }
              ]
            }
          ]
        },
        {
          "name": "Laksham",
          "postalCode": "3570",
          "district": "Comilla",
          "division": "Chittagong",
          "unions": [
            {
              "name": "Laksham Union",
              "upazila": "Laksham",
              "district": "Comilla",
              "division": "Chittagong",
              "villages": [
                {
                  "name": "Laksham",
                  "upazila": "Laksham",
                  "district": "Comilla",
                  "division": "Chittagong",
                  "postalCode": "3570"
                },
                {
                  "name": "Laksham Bazar",
                  "upazila": "Laksham",
                  "district": "Comilla",
                  "division": "Chittagong",
                  "postalCode": "3570"
                }
              ]
            }
          ]
        },
        {
          "name": "Barura",
          "nameBn": "",
          "postalCode": "",
          "district": "Comilla",
          "division": "Chittagong",
          "unions": [
            {
              "name": "Aganagar Union",
              "villages": [
                {
                  "name": "Aganagar",
                  "upazila": "Barura",
                  "district": "Cumilla",
                  "division": "Chittagong"
                }
              ],
              "upazila": "Barura",
              "district": "Cumilla",
              "division": "Chittagong"
            },
            {
              "name": "Bhabanipur Union",
              "villages": [
                {
                  "name": "Bhabanipur",
                  "upazila": "Barura",
                  "district": "Cumilla",
                  "division": "Chittagong"
                }
              ],
              "upazila": "Barura",
              "district": "Cumilla",
              "division": "Chittagong"
            },
            {
              "name": "Uttar Khoshbas Union",
              "villages": [
                {
                  "name": "Uttar Khoshbas",
                  "upazila": "Barura",
                  "district": "Cumilla",
                  "division": "Chittagong"
                }
              ],
              "upazila": "Barura",
              "district": "Cumilla",
              "division": "Chittagong"
            },
            {
              "name": "Dakshin Khoshbas Union",
              "villages": [
                {
                  "name": "Dakshin Khoshbas",
                  "upazila": "Barura",
                  "district": "Cumilla",
                  "division": "Chittagong"
                }
              ],
              "upazila": "Barura",
              "district": "Cumilla",
              "division": "Chittagong"
            },
            {
              "name": "Jhalam Union",
              "villages": [
                {
                  "name": "Jhalam",
                  "upazila": "Barura",
                  "district": "Cumilla",
                  "division": "Chittagong"
                }
              ],
              "upazila": "Barura",
              "district": "Cumilla",
              "division": "Chittagong"
            },
            {
              "name": "Chitodda Union",
              "villages": [
                {
                  "name": "Chitodda",
                  "upazila": "Barura",
                  "district": "Cumilla",
                  "division": "Chittagong"
                }
              ],
              "upazila": "Barura",
              "district": "Cumilla",
              "division": "Chittagong"
            },
            {
              "name": "Uttar Shilmuri Union",
              "villages": [
                {
                  "name": "Uttar Shilmuri",
                  "upazila": "Barura",
                  "district": "Cumilla",
                  "division": "Chittagong"
                }
              ],
              "upazila": "Barura",
              "district": "Cumilla",
              "division": "Chittagong"
            },
            {
              "name": "Dakshin Shilmuri Union",
              "villages": [
                {
                  "name": "Dakshin Shilmuri",
                  "upazila": "Barura",
                  "district": "Cumilla",
                  "division": "Chittagong"
                }
              ],
              "upazila": "Barura",
              "district": "Cumilla",
              "division": "Chittagong"
            },
            {
              "name": "Galimpur Union",
              "villages": [
                {
                  "name": "Galimpur",
                  "upazila": "Barura",
                  "district": "Cumilla",
                  "division": "Chittagong"
                }
              ],
              "upazila": "Barura",
              "district": "Cumilla",
              "division": "Chittagong"
            },
            {
              "name": "Shakpur Union",
              "villages": [
                {
                  "name": "Shakpur",
                  "upazila": "Barura",
                  "district": "Cumilla",
                  "division": "Chittagong"
                }
              ],
              "upazila": "Barura",
              "district": "Cumilla",
              "division": "Chittagong"
            },
            {
              "name": "Bhaukshar Union",
              "villages": [
                {
                  "name": "Bhaukshar",
                  "upazila": "Barura",
                  "district": "Cumilla",
                  "division": "Chittagong"
                }
              ],
              "upazila": "Barura",
              "district": "Cumilla",
              "division": "Chittagong"
            },
            {
              "name": "Adda Union",
              "villages": [
                {
                  "name": "Adda",
                  "upazila": "Barura",
                  "district": "Cumilla",
                  "division": "Chittagong"
                }
              ],
              "upazila": "Barura",
              "district": "Cumilla",
              "division": "Chittagong"
            },
            {
              "name": "Adra Union",
              "villages": [
                {
                  "name": "Adra",
                  "upazila": "Barura",
                  "district": "Cumilla",
                  "division": "Chittagong"
                }
              ],
              "upazila": "Barura",
              "district": "Cumilla",
              "division": "Chittagong"
            },
            {
              "name": "Payalgacha Union",
              "villages": [
                {
                  "name": "Payalgacha",
                  "upazila": "Barura",
                  "district": "Cumilla",
                  "division": "Chittagong"
                }
              ],
              "upazila": "Barura",
              "district": "Cumilla",
              "division": "Chittagong"
            },
            {
              "name": "Laxmipur Union",
              "villages": [
                {
                  "name": "Laxmipur",
                  "upazila": "Barura",
                  "district": "Cumilla",
                  "division": "Chittagong"
                }
              ],
              "upazila": "Barura",
              "district": "Cumilla",
              "division": "Chittagong"
            }
          ]
        },
        {
          "name": "Brahmanpara",
          "nameBn": "",
          "postalCode": "",
          "district": "Comilla",
          "division": "Chittagong",
          "unions": [
            {
              "name": "Brahmanpara Union",
              "upazila": "Brahmanpara",
              "district": "Comilla",
              "division": "Chittagong",
              "villages": []
            }
          ]
        },
        {
          "name": "Burichang",
          "nameBn": "",
          "postalCode": "",
          "district": "Comilla",
          "division": "Chittagong",
          "unions": [
            {
              "name": "Burichang Union",
              "upazila": "Burichang",
              "district": "Comilla",
              "division": "Chittagong",
              "villages": []
            }
          ]
        },
        {
          "name": "Chandina",
          "nameBn": "",
          "postalCode": "",
          "district": "Comilla",
          "division": "Chittagong",
          "unions": [
            {
              "name": "Chandina Union",
              "upazila": "Chandina",
              "district": "Comilla",
              "division": "Chittagong",
              "villages": []
            }
          ]
        },
        {
          "name": "Chauddagram",
          "nameBn": "",
          "postalCode": "",
          "district": "Comilla",
          "division": "Chittagong",
          "unions": [
            {
              "name": "Alkara Union",
              "villages": [
                {
                  "name": "Alkara",
                  "upazila": "Chauddagram",
                  "district": "Cumilla",
                  "division": "Chittagong"
                }
              ],
              "upazila": "Chauddagram",
              "district": "Cumilla",
              "division": "Chittagong"
            },
            {
              "name": "Batisha Union",
              "villages": [
                {
                  "name": "Batisha",
                  "upazila": "Chauddagram",
                  "district": "Cumilla",
                  "division": "Chittagong"
                }
              ],
              "upazila": "Chauddagram",
              "district": "Cumilla",
              "division": "Chittagong"
            },
            {
              "name": "Cheora Union",
              "villages": [
                {
                  "name": "Cheora",
                  "upazila": "Chauddagram",
                  "district": "Cumilla",
                  "division": "Chittagong"
                }
              ],
              "upazila": "Chauddagram",
              "district": "Cumilla",
              "division": "Chittagong"
            },
            {
              "name": "Ghulpasha Union",
              "villages": [
                {
                  "name": "Ghulpasha",
                  "upazila": "Chauddagram",
                  "district": "Cumilla",
                  "division": "Chittagong"
                }
              ],
              "upazila": "Chauddagram",
              "district": "Cumilla",
              "division": "Chittagong"
            },
            {
              "name": "Gunabati Union",
              "villages": [
                {
                  "name": "Gunabati",
                  "upazila": "Chauddagram",
                  "district": "Cumilla",
                  "division": "Chittagong"
                }
              ],
              "upazila": "Chauddagram",
              "district": "Cumilla",
              "division": "Chittagong"
            },
            {
              "name": "Jagannatdighi Union",
              "villages": [
                {
                  "name": "Jagannatdighi",
                  "upazila": "Chauddagram",
                  "district": "Cumilla",
                  "division": "Chittagong"
                }
              ],
              "upazila": "Chauddagram",
              "district": "Cumilla",
              "division": "Chittagong"
            },
            {
              "name": "Kalikapur Union",
              "villages": [
                {
                  "name": "Kalikapur",
                  "upazila": "Chauddagram",
                  "district": "Cumilla",
                  "division": "Chittagong"
                }
              ],
              "upazila": "Chauddagram",
              "district": "Cumilla",
              "division": "Chittagong"
            },
            {
              "name": "Kankapait Union",
              "villages": [
                {
                  "name": "Kankapait",
                  "upazila": "Chauddagram",
                  "district": "Cumilla",
                  "division": "Chittagong"
                }
              ],
              "upazila": "Chauddagram",
              "district": "Cumilla",
              "division": "Chittagong"
            },
            {
              "name": "Kashinagar Union",
              "villages": [
                {
                  "name": "Kashinagar",
                  "upazila": "Chauddagram",
                  "district": "Cumilla",
                  "division": "Chittagong"
                }
              ],
              "upazila": "Chauddagram",
              "district": "Cumilla",
              "division": "Chittagong"
            },
            {
              "name": "Munshirhat Union",
              "villages": [
                {
                  "name": "Munshirhat",
                  "upazila": "Chauddagram",
                  "district": "Cumilla",
                  "division": "Chittagong"
                }
              ],
              "upazila": "Chauddagram",
              "district": "Cumilla",
              "division": "Chittagong"
            },
            {
              "name": "Shuvapur Union",
              "villages": [
                {
                  "name": "Shuvapur",
                  "upazila": "Chauddagram",
                  "district": "Cumilla",
                  "division": "Chittagong"
                }
              ],
              "upazila": "Chauddagram",
              "district": "Cumilla",
              "division": "Chittagong"
            },
            {
              "name": "Sreepur Union",
              "villages": [
                {
                  "name": "Sreepur",
                  "upazila": "Chauddagram",
                  "district": "Cumilla",
                  "division": "Chittagong"
                }
              ],
              "upazila": "Chauddagram",
              "district": "Cumilla",
              "division": "Chittagong"
            },
            {
              "name": "Ujirpur Union",
              "villages": [
                {
                  "name": "Ujirpur",
                  "upazila": "Chauddagram",
                  "district": "Cumilla",
                  "division": "Chittagong"
                }
              ],
              "upazila": "Chauddagram",
              "district": "Cumilla",
              "division": "Chittagong"
            }
          ]
        },
        {
          "name": "Comilla Adarsha Sadar",
          "nameBn": "",
          "postalCode": "",
          "district": "Comilla",
          "division": "Chittagong",
          "unions": [
            {
              "name": "Comilla Adarsha Sadar Union",
              "upazila": "Comilla Adarsha Sadar",
              "district": "Comilla",
              "division": "Chittagong",
              "villages": []
            }
          ]
        },
        {
          "name": "Comilla Sadar Dakshin",
          "nameBn": "",
          "postalCode": "",
          "district": "Comilla",
          "division": "Chittagong",
          "unions": [
            {
              "name": "Comilla Sadar Dakshin Union",
              "upazila": "Comilla Sadar Dakshin",
              "district": "Comilla",
              "division": "Chittagong",
              "villages": []
            }
          ]
        },
        {
          "name": "Daudkandi",
          "nameBn": "",
          "postalCode": "",
          "district": "Comilla",
          "division": "Chittagong",
          "unions": [
            {
              "name": "Baropara Union",
              "villages": [
                {
                  "name": "Baropara",
                  "upazila": "Daudkandi",
                  "district": "Cumilla",
                  "division": "Chittagong"
                }
              ],
              "upazila": "Daudkandi",
              "district": "Cumilla",
              "division": "Chittagong"
            },
            {
              "name": "Betessor Union",
              "villages": [
                {
                  "name": "Betessor",
                  "upazila": "Daudkandi",
                  "district": "Cumilla",
                  "division": "Chittagong"
                }
              ],
              "upazila": "Daudkandi",
              "district": "Cumilla",
              "division": "Chittagong"
            },
            {
              "name": "Dakshin Eliotgonj Union",
              "villages": [
                {
                  "name": "Dakshin Eliotgonj",
                  "upazila": "Daudkandi",
                  "district": "Cumilla",
                  "division": "Chittagong"
                }
              ],
              "upazila": "Daudkandi",
              "district": "Cumilla",
              "division": "Chittagong"
            },
            {
              "name": "Doulotpur Union",
              "villages": [
                {
                  "name": "Doulotpur",
                  "upazila": "Daudkandi",
                  "district": "Cumilla",
                  "division": "Chittagong"
                }
              ],
              "upazila": "Daudkandi",
              "district": "Cumilla",
              "division": "Chittagong"
            },
            {
              "name": "Goalmari Union",
              "villages": [
                {
                  "name": "Goalmari",
                  "upazila": "Daudkandi",
                  "district": "Cumilla",
                  "division": "Chittagong"
                }
              ],
              "upazila": "Daudkandi",
              "district": "Cumilla",
              "division": "Chittagong"
            },
            {
              "name": "Gouripur Union",
              "villages": [
                {
                  "name": "Gouripur",
                  "upazila": "Daudkandi",
                  "district": "Cumilla",
                  "division": "Chittagong"
                }
              ],
              "upazila": "Daudkandi",
              "district": "Cumilla",
              "division": "Chittagong"
            },
            {
              "name": "Maruka Union",
              "villages": [
                {
                  "name": "Maruka",
                  "upazila": "Daudkandi",
                  "district": "Cumilla",
                  "division": "Chittagong"
                }
              ],
              "upazila": "Daudkandi",
              "district": "Cumilla",
              "division": "Chittagong"
            },
            {
              "name": "Mohammadpur Paschim Union",
              "villages": [
                {
                  "name": "Mohammadpur Paschim",
                  "upazila": "Daudkandi",
                  "district": "Cumilla",
                  "division": "Chittagong"
                }
              ],
              "upazila": "Daudkandi",
              "district": "Cumilla",
              "division": "Chittagong"
            },
            {
              "name": "Maligaon Union",
              "villages": [
                {
                  "name": "Maligaon",
                  "upazila": "Daudkandi",
                  "district": "Cumilla",
                  "division": "Chittagong"
                }
              ],
              "upazila": "Daudkandi",
              "district": "Cumilla",
              "division": "Chittagong"
            },
            {
              "name": "Mohammadpur Purbo Union",
              "villages": [
                {
                  "name": "Mohammadpur Purbo",
                  "upazila": "Daudkandi",
                  "district": "Cumilla",
                  "division": "Chittagong"
                }
              ],
              "upazila": "Daudkandi",
              "district": "Cumilla",
              "division": "Chittagong"
            },
            {
              "name": "Paschim Panchgachhia Union",
              "villages": [
                {
                  "name": "Paschim Panchgachhia",
                  "upazila": "Daudkandi",
                  "district": "Cumilla",
                  "division": "Chittagong"
                }
              ],
              "upazila": "Daudkandi",
              "district": "Cumilla",
              "division": "Chittagong"
            },
            {
              "name": "Podua Union",
              "villages": [
                {
                  "name": "Podua",
                  "upazila": "Daudkandi",
                  "district": "Cumilla",
                  "division": "Chittagong"
                }
              ],
              "upazila": "Daudkandi",
              "district": "Cumilla",
              "division": "Chittagong"
            },
            {
              "name": "Sundolpur Union",
              "villages": [
                {
                  "name": "Sundolpur",
                  "upazila": "Daudkandi",
                  "district": "Cumilla",
                  "division": "Chittagong"
                }
              ],
              "upazila": "Daudkandi",
              "district": "Cumilla",
              "division": "Chittagong"
            },
            {
              "name": "Uttar Daudkandi Union",
              "villages": [
                {
                  "name": "Uttar Daudkandi",
                  "upazila": "Daudkandi",
                  "district": "Cumilla",
                  "division": "Chittagong"
                }
              ],
              "upazila": "Daudkandi",
              "district": "Cumilla",
              "division": "Chittagong"
            },
            {
              "name": "Uttar Eliotgonj Union",
              "villages": [
                {
                  "name": "Uttar Eliotgonj",
                  "upazila": "Daudkandi",
                  "district": "Cumilla",
                  "division": "Chittagong"
                }
              ],
              "upazila": "Daudkandi",
              "district": "Cumilla",
              "division": "Chittagong"
            },
            {
              "name": "Zinglatoli Union",
              "villages": [
                {
                  "name": "Zinglatoli",
                  "upazila": "Daudkandi",
                  "district": "Cumilla",
                  "division": "Chittagong"
                }
              ],
              "upazila": "Daudkandi",
              "district": "Cumilla",
              "division": "Chittagong"
            }
          ]
        },
        {
          "name": "Debidwar",
          "nameBn": "",
          "postalCode": "",
          "district": "Comilla",
          "division": "Chittagong",
          "unions": [
            {
              "name": "Barkamta Union",
              "villages": [
                {
                  "name": "Barkamta",
                  "upazila": "Debidwar",
                  "district": "Cumilla",
                  "division": "Chittagong"
                }
              ],
              "upazila": "Debidwar",
              "district": "Cumilla",
              "division": "Chittagong"
            },
            {
              "name": "Boroshalghor Union",
              "villages": [
                {
                  "name": "Boroshalghor",
                  "upazila": "Debidwar",
                  "district": "Cumilla",
                  "division": "Chittagong"
                }
              ],
              "upazila": "Debidwar",
              "district": "Cumilla",
              "division": "Chittagong"
            },
            {
              "name": "Dakshin Gunaighor Union",
              "villages": [
                {
                  "name": "Dakshin Gunaighor",
                  "upazila": "Debidwar",
                  "district": "Cumilla",
                  "division": "Chittagong"
                }
              ],
              "upazila": "Debidwar",
              "district": "Cumilla",
              "division": "Chittagong"
            },
            {
              "name": "Dhamti Union",
              "villages": [
                {
                  "name": "Dhamti",
                  "upazila": "Debidwar",
                  "district": "Cumilla",
                  "division": "Chittagong"
                }
              ],
              "upazila": "Debidwar",
              "district": "Cumilla",
              "division": "Chittagong"
            },
            {
              "name": "Elahabad Union",
              "villages": [
                {
                  "name": "Elahabad",
                  "upazila": "Debidwar",
                  "district": "Cumilla",
                  "division": "Chittagong"
                }
              ],
              "upazila": "Debidwar",
              "district": "Cumilla",
              "division": "Chittagong"
            },
            {
              "name": "Fatehabad Union",
              "villages": [
                {
                  "name": "Fatehabad",
                  "upazila": "Debidwar",
                  "district": "Cumilla",
                  "division": "Chittagong"
                }
              ],
              "upazila": "Debidwar",
              "district": "Cumilla",
              "division": "Chittagong"
            },
            {
              "name": "Jafargonj Union",
              "villages": [
                {
                  "name": "Jafargonj",
                  "upazila": "Debidwar",
                  "district": "Cumilla",
                  "division": "Chittagong"
                }
              ],
              "upazila": "Debidwar",
              "district": "Cumilla",
              "division": "Chittagong"
            },
            {
              "name": "Mohanpur Union",
              "villages": [
                {
                  "name": "Mohanpur",
                  "upazila": "Debidwar",
                  "district": "Cumilla",
                  "division": "Chittagong"
                }
              ],
              "upazila": "Debidwar",
              "district": "Cumilla",
              "division": "Chittagong"
            },
            {
              "name": "Rajameher Union",
              "villages": [
                {
                  "name": "Rajameher",
                  "upazila": "Debidwar",
                  "district": "Cumilla",
                  "division": "Chittagong"
                }
              ],
              "upazila": "Debidwar",
              "district": "Cumilla",
              "division": "Chittagong"
            },
            {
              "name": "Rasulpur Union",
              "villages": [
                {
                  "name": "Rasulpur",
                  "upazila": "Debidwar",
                  "district": "Cumilla",
                  "division": "Chittagong"
                }
              ],
              "upazila": "Debidwar",
              "district": "Cumilla",
              "division": "Chittagong"
            },
            {
              "name": "Subil Union",
              "villages": [
                {
                  "name": "Subil",
                  "upazila": "Debidwar",
                  "district": "Cumilla",
                  "division": "Chittagong"
                }
              ],
              "upazila": "Debidwar",
              "district": "Cumilla",
              "division": "Chittagong"
            },
            {
              "name": "Sultanpur Union",
              "villages": [
                {
                  "name": "Sultanpur",
                  "upazila": "Debidwar",
                  "district": "Cumilla",
                  "division": "Chittagong"
                }
              ],
              "upazila": "Debidwar",
              "district": "Cumilla",
              "division": "Chittagong"
            },
            {
              "name": "Uttar Gunaighor Union",
              "villages": [
                {
                  "name": "Uttar Gunaighor",
                  "upazila": "Debidwar",
                  "district": "Cumilla",
                  "division": "Chittagong"
                }
              ],
              "upazila": "Debidwar",
              "district": "Cumilla",
              "division": "Chittagong"
            },
            {
              "name": "Vani Union",
              "villages": [
                {
                  "name": "Vani",
                  "upazila": "Debidwar",
                  "district": "Cumilla",
                  "division": "Chittagong"
                }
              ],
              "upazila": "Debidwar",
              "district": "Cumilla",
              "division": "Chittagong"
            },
            {
              "name": "Yousufpur Union",
              "villages": [
                {
                  "name": "Yousufpur",
                  "upazila": "Debidwar",
                  "district": "Cumilla",
                  "division": "Chittagong"
                }
              ],
              "upazila": "Debidwar",
              "district": "Cumilla",
              "division": "Chittagong"
            }
          ]
        },
        {
          "name": "Homna",
          "nameBn": "",
          "postalCode": "",
          "district": "Comilla",
          "division": "Chittagong",
          "unions": [
            {
              "name": "Homna Union",
              "upazila": "Homna",
              "district": "Comilla",
              "division": "Chittagong",
              "villages": []
            }
          ]
        },
        {
          "name": "Laksam",
          "nameBn": "",
          "postalCode": "",
          "district": "Comilla",
          "division": "Chittagong",
          "unions": [
            {
              "name": "Azgora Union",
              "villages": [
                {
                  "name": "Azgora",
                  "upazila": "Laksam",
                  "district": "Cumilla",
                  "division": "Chittagong"
                }
              ],
              "upazila": "Laksam",
              "district": "Cumilla",
              "division": "Chittagong"
            },
            {
              "name": "Bakoi Union",
              "villages": [
                {
                  "name": "Bakoi",
                  "upazila": "Laksam",
                  "district": "Cumilla",
                  "division": "Chittagong"
                }
              ],
              "upazila": "Laksam",
              "district": "Cumilla",
              "division": "Chittagong"
            },
            {
              "name": "Gobindapur Union",
              "villages": [
                {
                  "name": "Gobindapur",
                  "upazila": "Laksam",
                  "district": "Cumilla",
                  "division": "Chittagong"
                }
              ],
              "upazila": "Laksam",
              "district": "Cumilla",
              "division": "Chittagong"
            },
            {
              "name": "Kandirpar Union",
              "villages": [
                {
                  "name": "Kandirpar",
                  "upazila": "Laksam",
                  "district": "Cumilla",
                  "division": "Chittagong"
                }
              ],
              "upazila": "Laksam",
              "district": "Cumilla",
              "division": "Chittagong"
            },
            {
              "name": "Laksam Purba Union",
              "villages": [
                {
                  "name": "Laksam Purba",
                  "upazila": "Laksam",
                  "district": "Cumilla",
                  "division": "Chittagong"
                }
              ],
              "upazila": "Laksam",
              "district": "Cumilla",
              "division": "Chittagong"
            },
            {
              "name": "Mudafargonj Uttar Union",
              "villages": [
                {
                  "name": "Mudafargonj Uttar",
                  "upazila": "Laksam",
                  "district": "Cumilla",
                  "division": "Chittagong"
                }
              ],
              "upazila": "Laksam",
              "district": "Cumilla",
              "division": "Chittagong"
            },
            {
              "name": "Mudafargonj Dakshin Union",
              "villages": [
                {
                  "name": "Mudafargonj Dakshin",
                  "upazila": "Laksam",
                  "district": "Cumilla",
                  "division": "Chittagong"
                }
              ],
              "upazila": "Laksam",
              "district": "Cumilla",
              "division": "Chittagong"
            },
            {
              "name": "Uttarda Union",
              "villages": [
                {
                  "name": "Uttarda",
                  "upazila": "Laksam",
                  "district": "Cumilla",
                  "division": "Chittagong"
                }
              ],
              "upazila": "Laksam",
              "district": "Cumilla",
              "division": "Chittagong"
            }
          ]
        },
        {
          "name": "Lalmai",
          "nameBn": "",
          "postalCode": "",
          "district": "Comilla",
          "division": "Chittagong",
          "unions": [
            {
              "name": "Lalmai Union",
              "upazila": "Lalmai",
              "district": "Comilla",
              "division": "Chittagong",
              "villages": []
            }
          ]
        },
        {
          "name": "Meghna",
          "nameBn": "",
          "postalCode": "",
          "district": "Comilla",
          "division": "Chittagong",
          "unions": [
            {
              "name": "Meghna Union",
              "upazila": "Meghna",
              "district": "Comilla",
              "division": "Chittagong",
              "villages": []
            }
          ]
        },
        {
          "name": "Monohorgonj",
          "nameBn": "",
          "postalCode": "",
          "district": "Comilla",
          "division": "Chittagong",
          "unions": [
            {
              "name": "Monohorgonj Union",
              "upazila": "Monohorgonj",
              "district": "Comilla",
              "division": "Chittagong",
              "villages": []
            }
          ]
        },
        {
          "name": "Muradnagar",
          "nameBn": "",
          "postalCode": "",
          "district": "Comilla",
          "division": "Chittagong",
          "unions": [
            {
              "name": "Akubpur Union",
              "villages": [
                {
                  "name": "Akubpur",
                  "upazila": "Muradnagar",
                  "district": "Cumilla",
                  "division": "Chittagong"
                }
              ],
              "upazila": "Muradnagar",
              "district": "Cumilla",
              "division": "Chittagong"
            },
            {
              "name": "Andikot Union",
              "villages": [
                {
                  "name": "Andikot",
                  "upazila": "Muradnagar",
                  "district": "Cumilla",
                  "division": "Chittagong"
                }
              ],
              "upazila": "Muradnagar",
              "district": "Cumilla",
              "division": "Chittagong"
            },
            {
              "name": "Babuti Para Union",
              "villages": [
                {
                  "name": "Babuti Para",
                  "upazila": "Muradnagar",
                  "district": "Cumilla",
                  "division": "Chittagong"
                }
              ],
              "upazila": "Muradnagar",
              "district": "Cumilla",
              "division": "Chittagong"
            },
            {
              "name": "Purba Bangara Union",
              "villages": [
                {
                  "name": "Purba Bangara",
                  "upazila": "Muradnagar",
                  "district": "Cumilla",
                  "division": "Chittagong"
                }
              ],
              "upazila": "Muradnagar",
              "district": "Cumilla",
              "division": "Chittagong"
            },
            {
              "name": "Paschim Bangara Union",
              "villages": [
                {
                  "name": "Paschim Bangara",
                  "upazila": "Muradnagar",
                  "district": "Cumilla",
                  "division": "Chittagong"
                }
              ],
              "upazila": "Muradnagar",
              "district": "Cumilla",
              "division": "Chittagong"
            },
            {
              "name": "Chapitala Union",
              "villages": [
                {
                  "name": "Chapitala",
                  "upazila": "Muradnagar",
                  "district": "Cumilla",
                  "division": "Chittagong"
                }
              ],
              "upazila": "Muradnagar",
              "district": "Cumilla",
              "division": "Chittagong"
            },
            {
              "name": "Chhaliakandi Union",
              "villages": [
                {
                  "name": "Chhaliakandi",
                  "upazila": "Muradnagar",
                  "district": "Cumilla",
                  "division": "Chittagong"
                }
              ],
              "upazila": "Muradnagar",
              "district": "Cumilla",
              "division": "Chittagong"
            },
            {
              "name": "Darora Union",
              "villages": [
                {
                  "name": "Darora",
                  "upazila": "Muradnagar",
                  "district": "Cumilla",
                  "division": "Chittagong"
                }
              ],
              "upazila": "Muradnagar",
              "district": "Cumilla",
              "division": "Chittagong"
            },
            {
              "name": "Dhamghar Union",
              "villages": [
                {
                  "name": "Dhamghar",
                  "upazila": "Muradnagar",
                  "district": "Cumilla",
                  "division": "Chittagong"
                }
              ],
              "upazila": "Muradnagar",
              "district": "Cumilla",
              "division": "Chittagong"
            },
            {
              "name": "Jahapur Union",
              "villages": [
                {
                  "name": "Jahapur",
                  "upazila": "Muradnagar",
                  "district": "Cumilla",
                  "division": "Chittagong"
                }
              ],
              "upazila": "Muradnagar",
              "district": "Cumilla",
              "division": "Chittagong"
            },
            {
              "name": "Jatrapur Union",
              "villages": [
                {
                  "name": "Jatrapur",
                  "upazila": "Muradnagar",
                  "district": "Cumilla",
                  "division": "Chittagong"
                }
              ],
              "upazila": "Muradnagar",
              "district": "Cumilla",
              "division": "Chittagong"
            },
            {
              "name": "Kamalla Union",
              "villages": [
                {
                  "name": "Kamalla",
                  "upazila": "Muradnagar",
                  "district": "Cumilla",
                  "division": "Chittagong"
                }
              ],
              "upazila": "Muradnagar",
              "district": "Cumilla",
              "division": "Chittagong"
            },
            {
              "name": "Muradnagar Union",
              "villages": [
                {
                  "name": "Muradnagar",
                  "upazila": "Muradnagar",
                  "district": "Cumilla",
                  "division": "Chittagong"
                }
              ],
              "upazila": "Muradnagar",
              "district": "Cumilla",
              "division": "Chittagong"
            },
            {
              "name": "Purba Nabipur Union",
              "villages": [
                {
                  "name": "Purba Nabipur",
                  "upazila": "Muradnagar",
                  "district": "Cumilla",
                  "division": "Chittagong"
                }
              ],
              "upazila": "Muradnagar",
              "district": "Cumilla",
              "division": "Chittagong"
            },
            {
              "name": "Paschim Nabipur Union",
              "villages": [
                {
                  "name": "Paschim Nabipur",
                  "upazila": "Muradnagar",
                  "district": "Cumilla",
                  "division": "Chittagong"
                }
              ],
              "upazila": "Muradnagar",
              "district": "Cumilla",
              "division": "Chittagong"
            },
            {
              "name": "Paharpur Union",
              "villages": [
                {
                  "name": "Paharpur",
                  "upazila": "Muradnagar",
                  "district": "Cumilla",
                  "division": "Chittagong"
                }
              ],
              "upazila": "Muradnagar",
              "district": "Cumilla",
              "division": "Chittagong"
            },
            {
              "name": "Purba Purbadhair Union",
              "villages": [
                {
                  "name": "Purba Purbadhair",
                  "upazila": "Muradnagar",
                  "district": "Cumilla",
                  "division": "Chittagong"
                }
              ],
              "upazila": "Muradnagar",
              "district": "Cumilla",
              "division": "Chittagong"
            },
            {
              "name": "Paschim Purbadhair Union",
              "villages": [
                {
                  "name": "Paschim Purbadhair",
                  "upazila": "Muradnagar",
                  "district": "Cumilla",
                  "division": "Chittagong"
                }
              ],
              "upazila": "Muradnagar",
              "district": "Cumilla",
              "division": "Chittagong"
            },
            {
              "name": "Uttar Ramchandrapur Union",
              "villages": [
                {
                  "name": "Uttar Ramchandrapur",
                  "upazila": "Muradnagar",
                  "district": "Cumilla",
                  "division": "Chittagong"
                }
              ],
              "upazila": "Muradnagar",
              "district": "Cumilla",
              "division": "Chittagong"
            },
            {
              "name": "Dakshin Ramchandrapur Union",
              "villages": [
                {
                  "name": "Dakshin Ramchandrapur",
                  "upazila": "Muradnagar",
                  "district": "Cumilla",
                  "division": "Chittagong"
                }
              ],
              "upazila": "Muradnagar",
              "district": "Cumilla",
              "division": "Chittagong"
            },
            {
              "name": "Sreekail Union",
              "villages": [
                {
                  "name": "Sreekail",
                  "upazila": "Muradnagar",
                  "district": "Cumilla",
                  "division": "Chittagong"
                }
              ],
              "upazila": "Muradnagar",
              "district": "Cumilla",
              "division": "Chittagong"
            },
            {
              "name": "Tanki Union",
              "villages": [
                {
                  "name": "Tanki",
                  "upazila": "Muradnagar",
                  "district": "Cumilla",
                  "division": "Chittagong"
                }
              ],
              "upazila": "Muradnagar",
              "district": "Cumilla",
              "division": "Chittagong"
            }
          ]
        },
        {
          "name": "Nangalkot",
          "nameBn": "",
          "postalCode": "",
          "district": "Comilla",
          "division": "Chittagong",
          "unions": [
            {
              "name": "Nangalkot Union",
              "upazila": "Nangalkot",
              "district": "Comilla",
              "division": "Chittagong",
              "villages": []
            }
          ]
        },
        {
          "name": "Titas",
          "nameBn": "",
          "postalCode": "",
          "district": "Comilla",
          "division": "Chittagong",
          "unions": [
            {
              "name": "Titas Union",
              "upazila": "Titas",
              "district": "Comilla",
              "division": "Chittagong",
              "villages": []
            }
          ]
        }
      ]
    },
    {
      "name": "Cox's Bazar",
      "division": "Chittagong",
      "upazilas": [
        {
          "name": "Cox's Bazar Sadar",
          "postalCode": "4700",
          "district": "CoxsBazar",
          "division": "Chittagong",
          "unions": [
            {
              "name": "Cox's Bazar Sadar Union",
              "upazila": "Cox's Bazar Sadar",
              "district": "CoxsBazar",
              "division": "Chittagong",
              "villages": [
                {
                  "name": "Cox's Bazar",
                  "upazila": "Cox's Bazar Sadar",
                  "district": "CoxsBazar",
                  "division": "Chittagong",
                  "postalCode": "4700"
                },
                {
                  "name": "Cox's Bazar Bazar",
                  "upazila": "Cox's Bazar Sadar",
                  "district": "CoxsBazar",
                  "division": "Chittagong",
                  "postalCode": "4700"
                }
              ]
            }
          ]
        },
        {
          "name": "Chakaria",
          "nameBn": "",
          "postalCode": "",
          "district": "Cox's Bazar",
          "division": "Chittagong",
          "unions": [
            {
              "name": "Chakaria Union",
              "upazila": "Chakaria",
              "district": "Cox's Bazar",
              "division": "Chittagong",
              "villages": []
            }
          ]
        },
        {
          "name": "Eidgaon",
          "nameBn": "",
          "postalCode": "",
          "district": "Cox's Bazar",
          "division": "Chittagong",
          "unions": [
            {
              "name": "Eidgaon Union",
              "upazila": "Eidgaon",
              "district": "Cox's Bazar",
              "division": "Chittagong",
              "villages": []
            }
          ]
        },
        {
          "name": "Kutubdia",
          "nameBn": "",
          "postalCode": "",
          "district": "Cox's Bazar",
          "division": "Chittagong",
          "unions": [
            {
              "name": "Kutubdia Union",
              "upazila": "Kutubdia",
              "district": "Cox's Bazar",
              "division": "Chittagong",
              "villages": []
            }
          ]
        },
        {
          "name": "Maheshkhali",
          "nameBn": "",
          "postalCode": "",
          "district": "Cox's Bazar",
          "division": "Chittagong",
          "unions": [
            {
              "name": "Maheshkhali Union",
              "upazila": "Maheshkhali",
              "district": "Cox's Bazar",
              "division": "Chittagong",
              "villages": []
            }
          ]
        },
        {
          "name": "Pekua",
          "nameBn": "",
          "postalCode": "",
          "district": "Cox's Bazar",
          "division": "Chittagong",
          "unions": [
            {
              "name": "Pekua Union",
              "upazila": "Pekua",
              "district": "Cox's Bazar",
              "division": "Chittagong",
              "villages": []
            }
          ]
        },
        {
          "name": "Ramu",
          "nameBn": "",
          "postalCode": "",
          "district": "Cox's Bazar",
          "division": "Chittagong",
          "unions": [
            {
              "name": "Ramu Union",
              "upazila": "Ramu",
              "district": "Cox's Bazar",
              "division": "Chittagong",
              "villages": []
            }
          ]
        },
        {
          "name": "Teknaf",
          "nameBn": "",
          "postalCode": "",
          "district": "Cox's Bazar",
          "division": "Chittagong",
          "unions": [
            {
              "name": "Teknaf Union",
              "upazila": "Teknaf",
              "district": "Cox's Bazar",
              "division": "Chittagong",
              "villages": []
            }
          ]
        },
        {
          "name": "Ukhia",
          "nameBn": "",
          "postalCode": "",
          "district": "Cox's Bazar",
          "division": "Chittagong",
          "unions": [
            {
              "name": "Ukhia Union",
              "upazila": "Ukhia",
              "district": "Cox's Bazar",
              "division": "Chittagong",
              "villages": []
            }
          ]
        }
      ]
    },
    {
      "name": "Feni",
      "division": "Chittagong",
      "upazilas": [
        {
          "name": "Feni Sadar",
          "postalCode": "3900",
          "district": "Feni",
          "division": "Chittagong",
          "unions": [
            {
              "name": "Feni Sadar Union",
              "upazila": "Feni Sadar",
              "district": "Feni",
              "division": "Chittagong",
              "villages": [
                {
                  "name": "Feni",
                  "upazila": "Feni Sadar",
                  "district": "Feni",
                  "division": "Chittagong",
                  "postalCode": "3900"
                },
                {
                  "name": "Feni Bazar",
                  "upazila": "Feni Sadar",
                  "district": "Feni",
                  "division": "Chittagong",
                  "postalCode": "3900"
                }
              ]
            }
          ]
        },
        {
          "name": "Chhagalnaiya",
          "nameBn": "",
          "postalCode": "",
          "district": "Feni",
          "division": "Chittagong",
          "unions": [
            {
              "name": "Chhagalnaiya Union",
              "upazila": "Chhagalnaiya",
              "district": "Feni",
              "division": "Chittagong",
              "villages": []
            }
          ]
        },
        {
          "name": "Parshuram",
          "nameBn": "",
          "postalCode": "",
          "district": "Feni",
          "division": "Chittagong",
          "unions": [
            {
              "name": "Parshuram Union",
              "upazila": "Parshuram",
              "district": "Feni",
              "division": "Chittagong",
              "villages": []
            }
          ]
        },
        {
          "name": "Fulgazi",
          "nameBn": "",
          "postalCode": "",
          "district": "Feni",
          "division": "Chittagong",
          "unions": [
            {
              "name": "Fulgazi Union",
              "upazila": "Fulgazi",
              "district": "Feni",
              "division": "Chittagong",
              "villages": []
            }
          ]
        },
        {
          "name": "Daganbhuiyan",
          "nameBn": "",
          "postalCode": "",
          "district": "Feni",
          "division": "Chittagong",
          "unions": [
            {
              "name": "Daganbhuiyan Union",
              "upazila": "Daganbhuiyan",
              "district": "Feni",
              "division": "Chittagong",
              "villages": []
            }
          ]
        },
        {
          "name": "Sonagazi",
          "nameBn": "",
          "postalCode": "",
          "district": "Feni",
          "division": "Chittagong",
          "unions": [
            {
              "name": "Sonagazi Union",
              "upazila": "Sonagazi",
              "district": "Feni",
              "division": "Chittagong",
              "villages": []
            }
          ]
        }
      ]
    },
    {
      "name": "Noakhali",
      "division": "Chittagong",
      "upazilas": [
        {
          "name": "Noakhali Sadar",
          "postalCode": "3800",
          "district": "Noakhali",
          "division": "Chittagong",
          "unions": [
            {
              "name": "Noakhali Sadar Union",
              "upazila": "Noakhali Sadar",
              "district": "Noakhali",
              "division": "Chittagong",
              "villages": [
                {
                  "name": "Noakhali",
                  "upazila": "Noakhali Sadar",
                  "district": "Noakhali",
                  "division": "Chittagong",
                  "postalCode": "3800"
                },
                {
                  "name": "Noakhali Bazar",
                  "upazila": "Noakhali Sadar",
                  "district": "Noakhali",
                  "division": "Chittagong",
                  "postalCode": "3800"
                }
              ]
            }
          ]
        },
        {
          "name": "Begumganj",
          "nameBn": "",
          "postalCode": "",
          "district": "Noakhali",
          "division": "Chittagong",
          "unions": [
            {
              "name": "Begumganj Union",
              "upazila": "Begumganj",
              "district": "Noakhali",
              "division": "Chittagong",
              "villages": []
            }
          ]
        },
        {
          "name": "Chatkhil",
          "nameBn": "",
          "postalCode": "",
          "district": "Noakhali",
          "division": "Chittagong",
          "unions": [
            {
              "name": "Chatkhil Union",
              "upazila": "Chatkhil",
              "district": "Noakhali",
              "division": "Chittagong",
              "villages": []
            }
          ]
        },
        {
          "name": "Companiganj",
          "nameBn": "",
          "postalCode": "",
          "district": "Noakhali",
          "division": "Chittagong",
          "unions": [
            {
              "name": "Companiganj Union",
              "upazila": "Companiganj",
              "district": "Noakhali",
              "division": "Chittagong",
              "villages": []
            }
          ]
        },
        {
          "name": "Hatiya",
          "nameBn": "",
          "postalCode": "",
          "district": "Noakhali",
          "division": "Chittagong",
          "unions": [
            {
              "name": "Hatiya Union",
              "upazila": "Hatiya",
              "district": "Noakhali",
              "division": "Chittagong",
              "villages": []
            }
          ]
        },
        {
          "name": "Kabirhat",
          "nameBn": "",
          "postalCode": "",
          "district": "Noakhali",
          "division": "Chittagong",
          "unions": [
            {
              "name": "Kabirhat Union",
              "upazila": "Kabirhat",
              "district": "Noakhali",
              "division": "Chittagong",
              "villages": []
            }
          ]
        },
        {
          "name": "Senbagh",
          "nameBn": "",
          "postalCode": "",
          "district": "Noakhali",
          "division": "Chittagong",
          "unions": [
            {
              "name": "Senbagh Union",
              "upazila": "Senbagh",
              "district": "Noakhali",
              "division": "Chittagong",
              "villages": []
            }
          ]
        },
        {
          "name": "Sonaimuri",
          "nameBn": "",
          "postalCode": "",
          "district": "Noakhali",
          "division": "Chittagong",
          "unions": [
            {
              "name": "Sonaimuri Union",
              "upazila": "Sonaimuri",
              "district": "Noakhali",
              "division": "Chittagong",
              "villages": []
            }
          ]
        },
        {
          "name": "Subarnachar",
          "nameBn": "",
          "postalCode": "",
          "district": "Noakhali",
          "division": "Chittagong",
          "unions": [
            {
              "name": "Subarnachar Union",
              "upazila": "Subarnachar",
              "district": "Noakhali",
              "division": "Chittagong",
              "villages": []
            }
          ]
        }
      ]
    },
    {
      "name": "Lakshmipur",
      "division": "Chittagong",
      "upazilas": [
        {
          "name": "Lakshmipur Sadar",
          "postalCode": "3700",
          "district": "Lakshmipur",
          "division": "Chittagong",
          "unions": [
            {
              "name": "Lakshmipur Sadar Union",
              "upazila": "Lakshmipur Sadar",
              "district": "Lakshmipur",
              "division": "Chittagong",
              "villages": [
                {
                  "name": "Lakshmipur",
                  "upazila": "Lakshmipur Sadar",
                  "district": "Lakshmipur",
                  "division": "Chittagong",
                  "postalCode": "3700"
                },
                {
                  "name": "Lakshmipur Bazar",
                  "upazila": "Lakshmipur Sadar",
                  "district": "Lakshmipur",
                  "division": "Chittagong",
                  "postalCode": "3700"
                }
              ]
            }
          ]
        },
        {
          "name": "Kamalnagar",
          "nameBn": "",
          "postalCode": "",
          "district": "Lakshmipur",
          "division": "Chittagong",
          "unions": [
            {
              "name": "Kamalnagar Union",
              "upazila": "Kamalnagar",
              "district": "Lakshmipur",
              "division": "Chittagong",
              "villages": []
            }
          ]
        },
        {
          "name": "Raipur",
          "nameBn": "",
          "postalCode": "",
          "district": "Lakshmipur",
          "division": "Chittagong",
          "unions": [
            {
              "name": "Raipur Union",
              "upazila": "Raipur",
              "district": "Lakshmipur",
              "division": "Chittagong",
              "villages": []
            }
          ]
        },
        {
          "name": "Ramganj",
          "nameBn": "",
          "postalCode": "",
          "district": "Lakshmipur",
          "division": "Chittagong",
          "unions": [
            {
              "name": "Ramganj Union",
              "upazila": "Ramganj",
              "district": "Lakshmipur",
              "division": "Chittagong",
              "villages": []
            }
          ]
        },
        {
          "name": "Ramgati",
          "nameBn": "",
          "postalCode": "",
          "district": "Lakshmipur",
          "division": "Chittagong",
          "unions": [
            {
              "name": "Ramgati Union",
              "upazila": "Ramgati",
              "district": "Lakshmipur",
              "division": "Chittagong",
              "villages": []
            }
          ]
        }
      ]
    },
    {
      "name": "Chandpur",
      "division": "Chittagong",
      "upazilas": [
        {
          "name": "Chandpur Sadar",
          "postalCode": "3600",
          "district": "Chandpur",
          "division": "Chittagong",
          "unions": [
            {
              "name": "Chandpur Sadar Union",
              "upazila": "Chandpur Sadar",
              "district": "Chandpur",
              "division": "Chittagong",
              "villages": [
                {
                  "name": "Chandpur",
                  "upazila": "Chandpur Sadar",
                  "district": "Chandpur",
                  "division": "Chittagong",
                  "postalCode": "3600"
                },
                {
                  "name": "Chandpur Bazar",
                  "upazila": "Chandpur Sadar",
                  "district": "Chandpur",
                  "division": "Chittagong",
                  "postalCode": "3600"
                }
              ]
            }
          ]
        },
        {
          "name": "Faridganj",
          "nameBn": "",
          "postalCode": "",
          "district": "Chandpur",
          "division": "Chittagong",
          "unions": [
            {
              "name": "Faridganj Union",
              "upazila": "Faridganj",
              "district": "Chandpur",
              "division": "Chittagong",
              "villages": []
            }
          ]
        },
        {
          "name": "Haimchar",
          "nameBn": "",
          "postalCode": "",
          "district": "Chandpur",
          "division": "Chittagong",
          "unions": [
            {
              "name": "Haimchar Union",
              "upazila": "Haimchar",
              "district": "Chandpur",
              "division": "Chittagong",
              "villages": []
            }
          ]
        },
        {
          "name": "Hajiganj",
          "nameBn": "",
          "postalCode": "",
          "district": "Chandpur",
          "division": "Chittagong",
          "unions": [
            {
              "name": "Hajiganj Union",
              "upazila": "Hajiganj",
              "district": "Chandpur",
              "division": "Chittagong",
              "villages": []
            }
          ]
        },
        {
          "name": "Kachua",
          "nameBn": "",
          "postalCode": "",
          "district": "Chandpur",
          "division": "Chittagong",
          "unions": [
            {
              "name": "Kachua Union",
              "upazila": "Kachua",
              "district": "Chandpur",
              "division": "Chittagong",
              "villages": []
            }
          ]
        },
        {
          "name": "Matlab Dakshin",
          "nameBn": "",
          "postalCode": "",
          "district": "Chandpur",
          "division": "Chittagong",
          "unions": [
            {
              "name": "Matlab Dakshin Union",
              "upazila": "Matlab Dakshin",
              "district": "Chandpur",
              "division": "Chittagong",
              "villages": []
            }
          ]
        },
        {
          "name": "Matlab Uttar",
          "nameBn": "",
          "postalCode": "",
          "district": "Chandpur",
          "division": "Chittagong",
          "unions": [
            {
              "name": "Matlab Uttar Union",
              "upazila": "Matlab Uttar",
              "district": "Chandpur",
              "division": "Chittagong",
              "villages": []
            }
          ]
        },
        {
          "name": "Shahrasti",
          "nameBn": "",
          "postalCode": "",
          "district": "Chandpur",
          "division": "Chittagong",
          "unions": [
            {
              "name": "Shahrasti Union",
              "upazila": "Shahrasti",
              "district": "Chandpur",
              "division": "Chittagong",
              "villages": []
            }
          ]
        }
      ]
    },
    {
      "name": "Brahmanbaria",
      "division": "Chittagong",
      "upazilas": [
        {
          "name": "Brahmanbaria Sadar",
          "postalCode": "3400",
          "district": "Brahmanbaria",
          "division": "Chittagong",
          "unions": [
            {
              "name": "Brahmanbaria Sadar Union",
              "upazila": "Brahmanbaria Sadar",
              "district": "Brahmanbaria",
              "division": "Chittagong",
              "villages": [
                {
                  "name": "Brahmanbaria",
                  "upazila": "Brahmanbaria Sadar",
                  "district": "Brahmanbaria",
                  "division": "Chittagong",
                  "postalCode": "3400"
                },
                {
                  "name": "Brahmanbaria Bazar",
                  "upazila": "Brahmanbaria Sadar",
                  "district": "Brahmanbaria",
                  "division": "Chittagong",
                  "postalCode": "3400"
                }
              ]
            }
          ]
        },
        {
          "name": "Akhaura",
          "nameBn": "",
          "postalCode": "",
          "district": "Brahmanbaria",
          "division": "Chittagong",
          "unions": [
            {
              "name": "Akhaura Union",
              "upazila": "Akhaura",
              "district": "Brahmanbaria",
              "division": "Chittagong",
              "villages": []
            }
          ]
        },
        {
          "name": "Ashuganj",
          "nameBn": "",
          "postalCode": "",
          "district": "Brahmanbaria",
          "division": "Chittagong",
          "unions": [
            {
              "name": "Ashuganj Union",
              "upazila": "Ashuganj",
              "district": "Brahmanbaria",
              "division": "Chittagong",
              "villages": []
            }
          ]
        },
        {
          "name": "Bancharampur",
          "nameBn": "",
          "postalCode": "",
          "district": "Brahmanbaria",
          "division": "Chittagong",
          "unions": [
            {
              "name": "Bancharampur Union",
              "upazila": "Bancharampur",
              "district": "Brahmanbaria",
              "division": "Chittagong",
              "villages": []
            }
          ]
        },
        {
          "name": "Bijoynagar",
          "nameBn": "",
          "postalCode": "",
          "district": "Brahmanbaria",
          "division": "Chittagong",
          "unions": [
            {
              "name": "Bijoynagar Union",
              "upazila": "Bijoynagar",
              "district": "Brahmanbaria",
              "division": "Chittagong",
              "villages": []
            }
          ]
        },
        {
          "name": "Kasba",
          "nameBn": "",
          "postalCode": "",
          "district": "Brahmanbaria",
          "division": "Chittagong",
          "unions": [
            {
              "name": "Kasba Union",
              "upazila": "Kasba",
              "district": "Brahmanbaria",
              "division": "Chittagong",
              "villages": []
            }
          ]
        },
        {
          "name": "Nabinagar",
          "nameBn": "",
          "postalCode": "",
          "district": "Brahmanbaria",
          "division": "Chittagong",
          "unions": [
            {
              "name": "Nabinagar Union",
              "upazila": "Nabinagar",
              "district": "Brahmanbaria",
              "division": "Chittagong",
              "villages": []
            }
          ]
        },
        {
          "name": "Nasirnagar",
          "nameBn": "",
          "postalCode": "",
          "district": "Brahmanbaria",
          "division": "Chittagong",
          "unions": [
            {
              "name": "Nasirnagar Union",
              "upazila": "Nasirnagar",
              "district": "Brahmanbaria",
              "division": "Chittagong",
              "villages": []
            }
          ]
        },
        {
          "name": "Sarail",
          "nameBn": "",
          "postalCode": "",
          "district": "Brahmanbaria",
          "division": "Chittagong",
          "unions": [
            {
              "name": "Sarail Union",
              "upazila": "Sarail",
              "district": "Brahmanbaria",
              "division": "Chittagong",
              "villages": []
            }
          ]
        }
      ]
    },
    {
      "name": "Bandarban",
      "division": "Chittagong",
      "upazilas": [
        {
          "name": "Bandarban Sadar",
          "postalCode": "4600",
          "district": "Bandarban",
          "division": "Chittagong",
          "unions": [
            {
              "name": "Bandarban Sadar Union",
              "upazila": "Bandarban Sadar",
              "district": "Bandarban",
              "division": "Chittagong",
              "villages": [
                {
                  "name": "Bandarban",
                  "upazila": "Bandarban Sadar",
                  "district": "Bandarban",
                  "division": "Chittagong",
                  "postalCode": "4600"
                },
                {
                  "name": "Bandarban Bazar",
                  "upazila": "Bandarban Sadar",
                  "district": "Bandarban",
                  "division": "Chittagong",
                  "postalCode": "4600"
                }
              ]
            }
          ]
        },
        {
          "name": "Thanchi",
          "nameBn": "",
          "postalCode": "",
          "district": "Bandarban",
          "division": "Chittagong",
          "unions": [
            {
              "name": "Thanchi Union",
              "upazila": "Thanchi",
              "district": "Bandarban",
              "division": "Chittagong",
              "villages": []
            }
          ]
        },
        {
          "name": "Lama",
          "nameBn": "",
          "postalCode": "",
          "district": "Bandarban",
          "division": "Chittagong",
          "unions": [
            {
              "name": "Lama Union",
              "upazila": "Lama",
              "district": "Bandarban",
              "division": "Chittagong",
              "villages": []
            }
          ]
        },
        {
          "name": "Naikhongchhari",
          "nameBn": "",
          "postalCode": "",
          "district": "Bandarban",
          "division": "Chittagong",
          "unions": [
            {
              "name": "Naikhongchhari Union",
              "upazila": "Naikhongchhari",
              "district": "Bandarban",
              "division": "Chittagong",
              "villages": []
            }
          ]
        },
        {
          "name": "Ali Kadam",
          "nameBn": "",
          "postalCode": "",
          "district": "Bandarban",
          "division": "Chittagong",
          "unions": [
            {
              "name": "Ali Kadam Union",
              "upazila": "Ali Kadam",
              "district": "Bandarban",
              "division": "Chittagong",
              "villages": []
            }
          ]
        },
        {
          "name": "Rowangchhari",
          "nameBn": "",
          "postalCode": "",
          "district": "Bandarban",
          "division": "Chittagong",
          "unions": [
            {
              "name": "Rowangchhari Union",
              "upazila": "Rowangchhari",
              "district": "Bandarban",
              "division": "Chittagong",
              "villages": []
            }
          ]
        },
        {
          "name": "Ruma",
          "nameBn": "",
          "postalCode": "",
          "district": "Bandarban",
          "division": "Chittagong",
          "unions": [
            {
              "name": "Ruma Union",
              "upazila": "Ruma",
              "district": "Bandarban",
              "division": "Chittagong",
              "villages": []
            }
          ]
        }
      ]
    },
    {
      "name": "Khagrachari",
      "division": "Chittagong",
      "upazilas": [
        {
          "name": "Khagrachari Sadar",
          "postalCode": "4400",
          "district": "Khagrachari",
          "division": "Chittagong",
          "unions": [
            {
              "name": "Khagrachari Sadar Union",
              "upazila": "Khagrachari Sadar",
              "district": "Khagrachari",
              "division": "Chittagong",
              "villages": [
                {
                  "name": "Khagrachari",
                  "upazila": "Khagrachari Sadar",
                  "district": "Khagrachari",
                  "division": "Chittagong",
                  "postalCode": "4400"
                },
                {
                  "name": "Khagrachari Bazar",
                  "upazila": "Khagrachari Sadar",
                  "district": "Khagrachari",
                  "division": "Chittagong",
                  "postalCode": "4400"
                }
              ]
            }
          ]
        },
        {
          "name": "Dighinala",
          "nameBn": "",
          "postalCode": "",
          "district": "Khagrachari",
          "division": "Chittagong",
          "unions": [
            {
              "name": "Dighinala Union",
              "upazila": "Dighinala",
              "district": "Khagrachari",
              "division": "Chittagong",
              "villages": []
            }
          ]
        },
        {
          "name": "Panchari",
          "nameBn": "",
          "postalCode": "",
          "district": "Khagrachari",
          "division": "Chittagong",
          "unions": [
            {
              "name": "Panchari Union",
              "upazila": "Panchari",
              "district": "Khagrachari",
              "division": "Chittagong",
              "villages": []
            }
          ]
        },
        {
          "name": "Lakshmichhari",
          "nameBn": "",
          "postalCode": "",
          "district": "Khagrachari",
          "division": "Chittagong",
          "unions": [
            {
              "name": "Lakshmichhari Union",
              "upazila": "Lakshmichhari",
              "district": "Khagrachari",
              "division": "Chittagong",
              "villages": []
            }
          ]
        },
        {
          "name": "Mahalchhari",
          "nameBn": "",
          "postalCode": "",
          "district": "Khagrachari",
          "division": "Chittagong",
          "unions": [
            {
              "name": "Mahalchhari Union",
              "upazila": "Mahalchhari",
              "district": "Khagrachari",
              "division": "Chittagong",
              "villages": []
            }
          ]
        },
        {
          "name": "Manikchhari",
          "nameBn": "",
          "postalCode": "",
          "district": "Khagrachari",
          "division": "Chittagong",
          "unions": [
            {
              "name": "Manikchhari Union",
              "upazila": "Manikchhari",
              "district": "Khagrachari",
              "division": "Chittagong",
              "villages": []
            }
          ]
        },
        {
          "name": "Matiranga",
          "nameBn": "",
          "postalCode": "",
          "district": "Khagrachari",
          "division": "Chittagong",
          "unions": [
            {
              "name": "Matiranga Union",
              "upazila": "Matiranga",
              "district": "Khagrachari",
              "division": "Chittagong",
              "villages": []
            }
          ]
        },
        {
          "name": "Ramgarh",
          "nameBn": "",
          "postalCode": "",
          "district": "Khagrachari",
          "division": "Chittagong",
          "unions": [
            {
              "name": "Ramgarh Union",
              "upazila": "Ramgarh",
              "district": "Khagrachari",
              "division": "Chittagong",
              "villages": []
            }
          ]
        },
        {
          "name": "Guimara",
          "nameBn": "",
          "postalCode": "",
          "district": "Khagrachari",
          "division": "Chittagong",
          "unions": [
            {
              "name": "Guimara Union",
              "upazila": "Guimara",
              "district": "Khagrachari",
              "division": "Chittagong",
              "villages": []
            }
          ]
        }
      ]
    },
    {
      "name": "Rangamati",
      "division": "Chittagong",
      "upazilas": [
        {
          "name": "Rangamati Sadar",
          "postalCode": "4500",
          "district": "Rangamati",
          "division": "Chittagong",
          "unions": [
            {
              "name": "Rangamati Sadar Union",
              "upazila": "Rangamati Sadar",
              "district": "Rangamati",
              "division": "Chittagong",
              "villages": [
                {
                  "name": "Rangamati",
                  "upazila": "Rangamati Sadar",
                  "district": "Rangamati",
                  "division": "Chittagong",
                  "postalCode": "4500"
                },
                {
                  "name": "Rangamati Bazar",
                  "upazila": "Rangamati Sadar",
                  "district": "Rangamati",
                  "division": "Chittagong",
                  "postalCode": "4500"
                }
              ]
            }
          ]
        },
        {
          "name": "Belaichhari",
          "nameBn": "",
          "postalCode": "",
          "district": "Rangamati",
          "division": "Chittagong",
          "unions": [
            {
              "name": "Belaichhari Union",
              "upazila": "Belaichhari",
              "district": "Rangamati",
              "division": "Chittagong",
              "villages": []
            }
          ]
        },
        {
          "name": "Bagaichhari",
          "nameBn": "",
          "postalCode": "",
          "district": "Rangamati",
          "division": "Chittagong",
          "unions": [
            {
              "name": "Bagaichhari Union",
              "upazila": "Bagaichhari",
              "district": "Rangamati",
              "division": "Chittagong",
              "villages": []
            }
          ]
        },
        {
          "name": "Barkal",
          "nameBn": "",
          "postalCode": "",
          "district": "Rangamati",
          "division": "Chittagong",
          "unions": [
            {
              "name": "Barkal Union",
              "upazila": "Barkal",
              "district": "Rangamati",
              "division": "Chittagong",
              "villages": []
            }
          ]
        },
        {
          "name": "Juraichhari",
          "nameBn": "",
          "postalCode": "",
          "district": "Rangamati",
          "division": "Chittagong",
          "unions": [
            {
              "name": "Juraichhari Union",
              "upazila": "Juraichhari",
              "district": "Rangamati",
              "division": "Chittagong",
              "villages": []
            }
          ]
        },
        {
          "name": "Rajasthali",
          "nameBn": "",
          "postalCode": "",
          "district": "Rangamati",
          "division": "Chittagong",
          "unions": [
            {
              "name": "Rajasthali Union",
              "upazila": "Rajasthali",
              "district": "Rangamati",
              "division": "Chittagong",
              "villages": []
            }
          ]
        },
        {
          "name": "Kaptai",
          "nameBn": "",
          "postalCode": "",
          "district": "Rangamati",
          "division": "Chittagong",
          "unions": [
            {
              "name": "Kaptai Union",
              "upazila": "Kaptai",
              "district": "Rangamati",
              "division": "Chittagong",
              "villages": []
            }
          ]
        },
        {
          "name": "Langadu",
          "nameBn": "",
          "postalCode": "",
          "district": "Rangamati",
          "division": "Chittagong",
          "unions": [
            {
              "name": "Langadu Union",
              "upazila": "Langadu",
              "district": "Rangamati",
              "division": "Chittagong",
              "villages": []
            }
          ]
        },
        {
          "name": "Naniarchar",
          "nameBn": "",
          "postalCode": "",
          "district": "Rangamati",
          "division": "Chittagong",
          "unions": [
            {
              "name": "Naniarchar Union",
              "upazila": "Naniarchar",
              "district": "Rangamati",
              "division": "Chittagong",
              "villages": []
            }
          ]
        },
        {
          "name": "Kaukhali",
          "nameBn": "",
          "postalCode": "",
          "district": "Rangamati",
          "division": "Chittagong",
          "unions": [
            {
              "name": "Kaukhali Union",
              "upazila": "Kaukhali",
              "district": "Rangamati",
              "division": "Chittagong",
              "villages": []
            }
          ]
        }
      ]
    }
  ]
}